STARLINK-32823          
1 62823U 25018T   25354.14908801  .00017779  00000+0  61089-3 0  9994
2 62823  53.1620 318.8208 0001360 108.1600 251.9549 15.30203373 51004
STARLINK-32852          
1 62824U 25018U   25354.11332235  .00026831  00000+0  91462-3 0  9991
2 62824  53.1616 319.3104 0001080  85.5974 274.5150 15.30205067 50990
STARLINK-32825          
1 62825U 25018V   25353.08346975  .00020686  00000+0  70831-3 0  9992
2 62825  53.1609 321.4144 0001427 101.8400 258.2761 15.30213359 50868
STARLINK-32704          
1 62826U 25018W   25354.17019622  .00012829  00000+0  44458-3 0  9996
2 62826  53.1628 318.9700 0001748 135.1478 224.9665 15.30196556 50996
STARLINK-32838          
1 62827U 25018X   25354.58336806  .02035009  00000+0  28858-1 0  9999
2 62827  53.1594 278.1952 0000993  81.1829  94.2494 15.52722909  5850
STARLINK-32727          
1 62828U 25018Y   25354.10634567  .00021796  00000+0  74571-3 0  9994
2 62828  53.1615 316.4240 0002594 145.3522 214.7648 15.30205048 51973
STARLINK-11548 [DTC]    
1 62829U 25019A   25353.69981457  .00266702  00000+0  20080-2 0  9995
2 62829  43.0008  67.8487 0001652 343.6699  16.4115 15.70934777 51305
STARLINK-11480 [DTC]    
1 62830U 25019B   25354.54762113  .00163738  00000+0  12502-2 0  9993
2 62830  43.0007  63.0377 0003092 258.7875 101.2645 15.70920110 51435
STARLINK-11559 [DTC]    
1 62831U 25019C   25353.49856722  .00183346  00000+0  13989-2 0  9994
2 62831  43.0001  69.8082 0001336 252.1914 107.8808 15.70876984 51261
STARLINK-11549 [DTC]    
1 62832U 25019D   25354.24563769  .00176587  00000+0  13492-2 0  9993
2 62832  43.0034  65.0812 0002147 261.5575  98.5049 15.70864457 51383
STARLINK-11554 [DTC]    
1 62833U 25019E   25354.50527896  .00187225  00000+0  14219-2 0  9993
2 62833  43.0043  63.5912 0002048 269.0465  91.0168 15.70974317 51421
STARLINK-11520 [DTC]    
1 62834U 25019F   25353.57794381  .00176214  00000+0  13396-2 0  9996
2 62834  43.0003  68.6573 0003846 271.2790  88.7637 15.70980488 51295
STARLINK-11546 [DTC]    
1 62835U 25019G   25354.20329190  .00147186  00000+0  11267-2 0  9991
2 62835  42.9966  65.6320 0000971 203.3840 156.6984 15.70917496 51375
STARLINK-11533 [DTC]    
1 62836U 25019H   25354.17144114  .00210478  00000+0  15912-2 0  9995
2 62836  42.9993  65.3750 0002699 314.3196  45.7451 15.71008700 51373
STARLINK-11557 [DTC]    
1 62837U 25019J   25354.47342294  .00211471  00000+0  16064-2 0  9991
2 62837  43.0004  63.3320 0001026 245.8790 114.1970 15.70892752 51421
STARLINK-11556 [DTC]    
1 62838U 25019K   25354.59618727  .00168407  00000+0  12894-2 0  9999
2 62838  43.0000  62.5299 0002280 255.9752 104.0862 15.70841918 51445
