[{"OBJECT_NAME":"STARLINK-32823","OBJECT_ID":"2025-018T","EPOCH":"2025-12-20T03:34:41.204064","MEAN_MOTION":15.30203373,"ECCENTRICITY":0.00013607,"INCLINATION":53.162,"RA_OF_ASC_NODE":318.8208,"ARG_OF_PERICENTER":108.16,"MEAN_ANOMALY":251.9549,"EPHEMERIS_TYPE":0,"CLASSIFICATION_TYPE":"U","NORAD_CAT_ID":62823,"ELEMENT_SET_NO":999,"REV_AT_EPOCH":5100,"BSTAR":0.00061089455,"MEAN_MOTION_DOT":0.00017779,"MEAN_MOTION_DDOT":0},{"OBJECT_NAME":"STARLINK-32852","OBJECT_ID":"2025-018U","EPOCH":"2025-12-20T02:43:11.051040","MEAN_MOTION":15.30205067,"ECCENTRICITY":0.00010805,"INCLINATION":53.1616,"RA_OF_ASC_NODE":319.3104,"ARG_OF_PERICENTER":85.5974,"MEAN_ANOMALY":274.515,"EPHEMERIS_TYPE":0,"CLASSIFICATION_TYPE":"U","NORAD_CAT_ID":62824,"ELEMENT_SET_NO":999,"REV_AT_EPOCH":5099,"BSTAR":0.00091462129,"MEAN_MOTION_DOT":0.00026831,"MEAN_MOTION_DDOT":0},{"OBJECT_NAME":"STARLINK-32825","OBJECT_ID":"2025-018V","EPOCH":"2025-12-19T02:00:11.786400","MEAN_MOTION":15.30213359,"ECCENTRICITY":0.00014271,"INCLINATION":53.1609,"RA_OF_ASC_NODE":321.4144,"ARG_OF_PERICENTER":101.84,"MEAN_ANOMALY":258.2761,"EPHEMERIS_TYPE":0,"CLASSIFICATION_TYPE":"U","NORAD_CAT_ID":62825,"ELEMENT_SET_NO":999,"REV_AT_EPOCH":5086,"BSTAR":0.00070831321,"MEAN_MOTION_DOT":0.00020686,"MEAN_MOTION_DDOT":0},{"OBJECT_NAME":"STARLINK-32704","OBJECT_ID":"2025-018W","EPOCH":"2025-12-20T04:05:04.953408","MEAN_MOTION":15.30196556,"ECCENTRICITY":0.0001748,"INCLINATION":53.1628,"RA_OF_ASC_NODE":318.97,"ARG_OF_PERICENTER":135.1478,"MEAN_ANOMALY":224.9665,"EPHEMERIS_TYPE":0,"CLASSIFICATION_TYPE":"U","NORAD_CAT_ID":62826,"ELEMENT_SET_NO":999,"REV_AT_EPOCH":5099,"BSTAR":0.00044457589,"MEAN_MOTION_DOT":0.00012829,"MEAN_MOTION_DDOT":0},{"OBJECT_NAME":"STARLINK-32838","OBJECT_ID":"2025-018X","EPOCH":"2025-12-20T14:00:03.000384","MEAN_MOTION":15.52722909,"ECCENTRICITY":9.932e-5,"INCLINATION":53.1594,"RA_OF_ASC_NODE":278.1952,"ARG_OF_PERICENTER":81.1829,"MEAN_ANOMALY":94.2494,"EPHEMERIS_TYPE":0,"CLASSIFICATION_TYPE":"U","NORAD_CAT_ID":62827,"ELEMENT_SET_NO":999,"REV_AT_EPOCH":585,"BSTAR":0.028857859,"MEAN_MOTION_DOT":0.02035009,"MEAN_MOTION_DDOT":0},{"OBJECT_NAME":"STARLINK-32727","OBJECT_ID":"2025-018Y","EPOCH":"2025-12-20T02:33:08.265888","MEAN_MOTION":15.30205048,"ECCENTRICITY":0.00025948,"INCLINATION":53.1615,"RA_OF_ASC_NODE":316.424,"ARG_OF_PERICENTER":145.3522,"MEAN_ANOMALY":214.7648,"EPHEMERIS_TYPE":0,"CLASSIFICATION_TYPE":"U","NORAD_CAT_ID":62828,"ELEMENT_SET_NO":999,"REV_AT_EPOCH":5197,"BSTAR":0.00074571453,"MEAN_MOTION_DOT":0.00021796,"MEAN_MOTION_DDOT":0},{"OBJECT_NAME":"STARLINK-11548 [DTC]","OBJECT_ID":"2025-019A","EPOCH":"2025-12-19T16:47:43.978848","MEAN_MOTION":15.70934777,"ECCENTRICITY":0.00016528,"INCLINATION":43.0008,"RA_OF_ASC_NODE":67.8487,"ARG_OF_PERICENTER":343.6699,"MEAN_ANOMALY":16.4115,"EPHEMERIS_TYPE":0,"CLASSIFICATION_TYPE":"U","NORAD_CAT_ID":62829,"ELEMENT_SET_NO":999,"REV_AT_EPOCH":5130,"BSTAR":0.002007986,"MEAN_MOTION_DOT":0.00266702,"MEAN_MOTION_DDOT":0},{"OBJECT_NAME":"STARLINK-11480 [DTC]","OBJECT_ID":"2025-019B","EPOCH":"2025-12-20T13:08:34.465632","MEAN_MOTION":15.7092011,"ECCENTRICITY":0.00030928,"INCLINATION":43.0007,"RA_OF_ASC_NODE":63.0377,"ARG_OF_PERICENTER":258.7875,"MEAN_ANOMALY":101.2645,"EPHEMERIS_TYPE":0,"CLASSIFICATION_TYPE":"U","NORAD_CAT_ID":62830,"ELEMENT_SET_NO":999,"REV_AT_EPOCH":5143,"BSTAR":0.0012502058,"MEAN_MOTION_DOT":0.00163738,"MEAN_MOTION_DDOT":0},{"OBJECT_NAME":"STARLINK-11559 [DTC]","OBJECT_ID":"2025-019C","EPOCH":"2025-12-19T11:57:56.207808","MEAN_MOTION":15.70876984,"ECCENTRICITY":0.0001336,"INCLINATION":43.0001,"RA_OF_ASC_NODE":69.8082,"ARG_OF_PERICENTER":252.1914,"MEAN_ANOMALY":107.8808,"EPHEMERIS_TYPE":0,"CLASSIFICATION_TYPE":"U","NORAD_CAT_ID":62831,"ELEMENT_SET_NO":999,"REV_AT_EPOCH":5126,"BSTAR":0.0013989,"MEAN_MOTION_DOT":0.00183346,"MEAN_MOTION_DDOT":0},{"OBJECT_NAME":"STARLINK-11549 [DTC]","OBJECT_ID":"2025-019D","EPOCH":"2025-12-20T05:53:43.096416","MEAN_MOTION":15.70864457,"ECCENTRICITY":0.0002147,"INCLINATION":43.0034,"RA_OF_ASC_NODE":65.0812,"ARG_OF_PERICENTER":261.5575,"MEAN_ANOMALY":98.5049,"EPHEMERIS_TYPE":0,"CLASSIFICATION_TYPE":"U","NORAD_CAT_ID":62832,"ELEMENT_SET_NO":999,"REV_AT_EPOCH":5138,"BSTAR":0.0013492,"MEAN_MOTION_DOT":0.00176587,"MEAN_MOTION_DDOT":0},{"OBJECT_NAME":"STARLINK-11554 [DTC]","OBJECT_ID":"2025-019E","EPOCH":"2025-12-20T12:07:36.102144","MEAN_MOTION":15.70974317,"ECCENTRICITY":0.00020487,"INCLINATION":43.0043,"RA_OF_ASC_NODE":63.5912,"ARG_OF_PERICENTER":269.0465,"MEAN_ANOMALY":91.0168,"EPHEMERIS_TYPE":0,"CLASSIFICATION_TYPE":"U","NORAD_CAT_ID":62833,"ELEMENT_SET_NO":999,"REV_AT_EPOCH":5142,"BSTAR":0.0014218971,"MEAN_MOTION_DOT":0.00187225,"MEAN_MOTION_DDOT":0},{"OBJECT_NAME":"STARLINK-11520 [DTC]","OBJECT_ID":"2025-019F","EPOCH":"2025-12-19T13:52:14.345184","MEAN_MOTION":15.70980488,"ECCENTRICITY":0.0003846,"INCLINATION":43.0003,"RA_OF_ASC_NODE":68.6573,"ARG_OF_PERICENTER":271.279,"MEAN_ANOMALY":88.7637,"EPHEMERIS_TYPE":0,"CLASSIFICATION_TYPE":"U","NORAD_CAT_ID":62834,"ELEMENT_SET_NO":999,"REV_AT_EPOCH":5129,"BSTAR":0.0013396,"MEAN_MOTION_DOT":0.00176214,"MEAN_MOTION_DDOT":0},{"OBJECT_NAME":"STARLINK-11546 [DTC]","OBJECT_ID":"2025-019G","EPOCH":"2025-12-20T04:52:44.420160","MEAN_MOTION":15.70917496,"ECCENTRICITY":9.717e-5,"INCLINATION":42.9966,"RA_OF_ASC_NODE":65.632,"ARG_OF_PERICENTER":203.384,"MEAN_ANOMALY":156.6984,"EPHEMERIS_TYPE":0,"CLASSIFICATION_TYPE":"U","NORAD_CAT_ID":62835,"ELEMENT_SET_NO":999,"REV_AT_EPOCH":5137,"BSTAR":0.0011266903,"MEAN_MOTION_DOT":0.00147186,"MEAN_MOTION_DDOT":0},{"OBJECT_NAME":"STARLINK-11533 [DTC]","OBJECT_ID":"2025-019H","EPOCH":"2025-12-20T04:06:52.514496","MEAN_MOTION":15.710087,"ECCENTRICITY":0.00026991,"INCLINATION":42.9993,"RA_OF_ASC_NODE":65.375,"ARG_OF_PERICENTER":314.3196,"MEAN_ANOMALY":45.7451,"EPHEMERIS_TYPE":0,"CLASSIFICATION_TYPE":"U","NORAD_CAT_ID":62836,"ELEMENT_SET_NO":999,"REV_AT_EPOCH":5137,"BSTAR":0.0015912074,"MEAN_MOTION_DOT":0.00210478,"MEAN_MOTION_DDOT":0},{"OBJECT_NAME":"STARLINK-11557 [DTC]","OBJECT_ID":"2025-019J","EPOCH":"2025-12-20T11:21:43.742016","MEAN_MOTION":15.70892752,"ECCENTRICITY":0.00010262,"INCLINATION":43.0004,"RA_OF_ASC_NODE":63.332,"ARG_OF_PERICENTER":245.879,"MEAN_ANOMALY":114.197,"EPHEMERIS_TYPE":0,"CLASSIFICATION_TYPE":"U","NORAD_CAT_ID":62837,"ELEMENT_SET_NO":999,"REV_AT_EPOCH":5142,"BSTAR":0.0016063957,"MEAN_MOTION_DOT":0.00211471,"MEAN_MOTION_DDOT":0},{"OBJECT_NAME":"STARLINK-11556 [DTC]","OBJECT_ID":"2025-019K","EPOCH":"2025-12-20T14:18:30.580128","MEAN_MOTION":15.70841918,"ECCENTRICITY":0.00022809,"INCLINATION":43,"RA_OF_ASC_NODE":62.5299,"ARG_OF_PERICENTER":255.9752,"MEAN_ANOMALY":104.0862,"EPHEMERIS_TYPE":0,"CLASSIFICATION_TYPE":"U","NORAD_CAT_ID":62838,"ELEMENT_SET_NO":999,"REV_AT_EPOCH":5144,"BSTAR":0.0012893523,"MEAN_MOTION_DOT":0.00168407,"MEAN_MOTION_DDOT":0}]
